{
  "type": "FeatureCollection",
  "features": [
    {
      "type": "Feature",
      "properties": {
        "norad_id": 66550,
        "name": "CZ-7A R/B",
        "group": "last-30-days",
        "lat": -0.6414340786941642,
        "lon": -94.42095922499045,
        "alt_km": 26895.12429430363,
        "timestamp": "2025-12-16T05:49:07.983240+00:00",
        "meta_object_name": "CZ-7A R/B",
        "meta_object_id": "2025-277B",
        "meta_epoch": "2025-12-12T23:59:46.063680",
        "meta_mean_motion": 2.69999213,
        "meta_eccentricity": 0.70164962,
        "meta_inclination": 14.3833,
        "meta_ra_of_asc_node": 269.7494,
        "meta_arg_of_pericenter": 189.2871,
        "meta_mean_anomaly": 143.2042,
        "meta_ephemeris_type": 0,
        "meta_classification_type": "U",
        "meta_norad_cat_id": 66550,
        "meta_element_set_no": 999,
        "meta_rev_at_epoch": 35,
        "meta_bstar": 0.0022608485,
        "meta_mean_motion_dot": 0.01807848,
        "meta_mean_motion_ddot": -2.55676e-07,
        "tle_line1": "1 66550U 25277B   25346.99983870  .01807848 -25568-6  22608-2 0  9997",
        "tle_line2": "2 66550  14.3833 269.7494 7016496 189.2871 143.2042  2.69999213   350"
      },
      "geometry": {
        "type": "Point",
        "coordinates": [
          -94.42095922499045,
          -0.6414340786941642
        ]
      }
    },
    {
      "type": "Feature",
      "properties": {
        "norad_id": 66554,
        "name": "GLOBAL-33",
        "group": "last-30-days",
        "lat": -27.04167199814724,
        "lon": 2.2401217288869826,
        "alt_km": 475.1338085661637,
        "timestamp": "2025-12-16T05:49:07.983259+00:00",
        "meta_object_name": "GLOBAL-33",
        "meta_object_id": "2025-267A",
        "meta_epoch": "2025-12-15T20:36:53.666208",
        "meta_mean_motion": 15.31616377,
        "meta_eccentricity": 0.00037341,
        "meta_inclination": 42.0214,
        "meta_ra_of_asc_node": 38.9876,
        "meta_arg_of_pericenter": 88.3433,
        "meta_mean_anomaly": 271.7833,
        "meta_ephemeris_type": 0,
        "meta_classification_type": "U",
        "meta_norad_cat_id": 66554,
        "meta_element_set_no": 999,
        "meta_rev_at_epoch": 388,
        "meta_bstar": 0.00031965408,
        "meta_mean_motion_dot": 9.732e-05,
        "meta_mean_motion_ddot": 0,
        "tle_line1": "1 66554U 25267A   25349.85895447  .00009732  00000+0  31965-3 0  9998",
        "tle_line2": "2 66554  42.0214  38.9876 0003734  88.3433 271.7833 15.31616377  3888"
      },
      "geometry": {
        "type": "Point",
        "coordinates": [
          2.2401217288869826,
          -27.04167199814724
        ]
      }
    },
    {
      "type": "Feature",
      "properties": {
        "norad_id": 66555,
        "name": "ELECTRON KICK STAGE R/B",
        "group": "last-30-days",
        "lat": 24.916745631415495,
        "lon": 67.63227896206224,
        "alt_km": 459.54780147843485,
        "timestamp": "2025-12-16T05:49:07.983270+00:00",
        "meta_object_name": "ELECTRON KICK STAGE R/B",
        "meta_object_id": "2025-267B",
        "meta_epoch": "2025-12-15T20:16:03.858240",
        "meta_mean_motion": 15.3296911,
        "meta_eccentricity": 0.00065691,
        "meta_inclination": 42.02,
        "meta_ra_of_asc_node": 38.8761,
        "meta_arg_of_pericenter": 78.9259,
        "meta_mean_anomaly": 281.2317,
        "meta_ephemeris_type": 0,
        "meta_classification_type": "U",
        "meta_norad_cat_id": 66555,
        "meta_element_set_no": 999,
        "meta_rev_at_epoch": 388,
        "meta_bstar": 0.00060774883,
        "meta_mean_motion_dot": 0.00019586,
        "meta_mean_motion_ddot": 0,
        "tle_line1": "1 66555U 25267B   25349.84448910  .00019586  00000+0  60775-3 0  9996",
        "tle_line2": "2 66555  42.0200  38.8761 0006569  78.9259 281.2317 15.32969110  3886"
      },
      "geometry": {
        "type": "Point",
        "coordinates": [
          67.63227896206224,
          24.916745631415495
        ]
      }
    },
    {
      "type": "Feature",
      "properties": {
        "norad_id": 66557,
        "name": "STARLINK-35699",
        "group": "last-30-days",
        "lat": -33.75544250389445,
        "lon": -33.463550407876205,
        "alt_km": 417.13290315176073,
        "timestamp": "2025-12-16T05:49:07.983283+00:00",
        "meta_object_name": "STARLINK-35699",
        "meta_object_id": "2025-268A",
        "meta_epoch": "2025-12-15T19:32:11.246784",
        "meta_mean_motion": 15.50594269,
        "meta_eccentricity": 0.000154,
        "meta_inclination": 42.9999,
        "meta_ra_of_asc_node": 103.2197,
        "meta_arg_of_pericenter": 283.5816,
        "meta_mean_anomaly": 76.4873,
        "meta_ephemeris_type": 0,
        "meta_classification_type": "U",
        "meta_norad_cat_id": 66557,
        "meta_element_set_no": 999,
        "meta_rev_at_epoch": 510,
        "meta_bstar": 0.00095715171,
        "meta_mean_motion_dot": 0.00056245,
        "meta_mean_motion_ddot": 0,
        "tle_line1": "1 66557U 25268A   25349.81401906  .00056245  00000+0  95715-3 0  9995",
        "tle_line2": "2 66557  42.9999 103.2197 0001540 283.5816  76.4873 15.50594269  5106"
      },
      "geometry": {
        "type": "Point",
        "coordinates": [
          -33.463550407876205,
          -33.75544250389445
        ]
      }
    },
    {
      "type": "Feature",
      "properties": {
        "norad_id": 66558,
        "name": "STARLINK-35695",
        "group": "last-30-days",
        "lat": -34.66482119415884,
        "lon": -31.36856505504254,
        "alt_km": 415.79944145872287,
        "timestamp": "2025-12-16T05:49:07.983294+00:00",
        "meta_object_name": "STARLINK-35695",
        "meta_object_id": "2025-268B",
        "meta_epoch": "2025-12-15T16:26:10.303872",
        "meta_mean_motion": 15.5060751,
        "meta_eccentricity": 0.00038316,
        "meta_inclination": 42.9942,
        "meta_ra_of_asc_node": 103.9709,
        "meta_arg_of_pericenter": 274.162,
        "meta_mean_anomaly": 85.8802,
        "meta_ephemeris_type": 0,
        "meta_classification_type": "U",
        "meta_norad_cat_id": 66558,
        "meta_element_set_no": 999,
        "meta_rev_at_epoch": 508,
        "meta_bstar": 0.000948449,
        "meta_mean_motion_dot": 0.00055765,
        "meta_mean_motion_ddot": 0,
        "tle_line1": "1 66558U 25268B   25349.68484148  .00055765  00000+0  94845-3 0  9999",
        "tle_line2": "2 66558  42.9942 103.9709 0003831 274.1620  85.8802 15.50607510  5082"
      },
      "geometry": {
        "type": "Point",
        "coordinates": [
          -31.36856505504254,
          -34.66482119415884
        ]
      }
    },
    {
      "type": "Feature",
      "properties": {
        "norad_id": 66559,
        "name": "STARLINK-35419",
        "group": "last-30-days",
        "lat": -35.52116368960662,
        "lon": -29.291801770033853,
        "alt_km": 416.35673418111855,
        "timestamp": "2025-12-16T05:49:07.983304+00:00",
        "meta_object_name": "STARLINK-35419",
        "meta_object_id": "2025-268C",
        "meta_epoch": "2025-12-15T16:25:40.934784",
        "meta_mean_motion": 15.50593296,
        "meta_eccentricity": 0.00026,
        "meta_inclination": 42.9984,
        "meta_ra_of_asc_node": 103.9678,
        "meta_arg_of_pericenter": 269.6124,
        "meta_mean_anomaly": 90.4439,
        "meta_ephemeris_type": 0,
        "meta_classification_type": "U",
        "meta_norad_cat_id": 66559,
        "meta_element_set_no": 999,
        "meta_rev_at_epoch": 508,
        "meta_bstar": 0.0011361626,
        "meta_mean_motion_dot": 0.00066922,
        "meta_mean_motion_ddot": 0,
        "tle_line1": "1 66559U 25268C   25349.68450156  .00066922  00000+0  11362-2 0  9991",
        "tle_line2": "2 66559  42.9984 103.9678 0002600 269.6124  90.4439 15.50593296  5088"
      },
      "geometry": {
        "type": "Point",
        "coordinates": [
          -29.291801770033853,
          -35.52116368960662
        ]
      }
    },
    {
      "type": "Feature",
      "properties": {
        "norad_id": 66560,
        "name": "STARLINK-35411",
        "group": "last-30-days",
        "lat": -36.34449976195757,
        "lon": -27.15477264696423,
        "alt_km": 416.6332862326344,
        "timestamp": "2025-12-16T05:49:07.983315+00:00",
        "meta_object_name": "STARLINK-35411",
        "meta_object_id": "2025-268D",
        "meta_epoch": "2025-12-15T17:57:57.700800",
        "meta_mean_motion": 15.50643049,
        "meta_eccentricity": 0.0002042,
        "meta_inclination": 42.9998,
        "meta_ra_of_asc_node": 103.5882,
        "meta_arg_of_pericenter": 272.5318,
        "meta_mean_anomaly": 87.5308,
        "meta_ephemeris_type": 0,
        "meta_classification_type": "U",
        "meta_norad_cat_id": 66560,
        "meta_element_set_no": 999,
        "meta_rev_at_epoch": 509,
        "meta_bstar": 0.00091635961,
        "meta_mean_motion_dot": 0.00053913,
        "meta_mean_motion_ddot": 0,
        "tle_line1": "1 66560U 25268D   25349.74858450  .00053913  00000+0  91636-3 0  9998",
        "tle_line2": "2 66560  42.9998 103.5882 0002042 272.5318  87.5308 15.50643049  5091"
      },
      "geometry": {
        "type": "Point",
        "coordinates": [
          -27.15477264696423,
          -36.34449976195757
        ]
      }
    }
  ]
}